{
  "last_updated": "2026-03-05T06:00:02.501080",
  "satellites": {
    "98592": {
      "name": "DUTHSat-2",
      "norad_id": "98592",
      "tle": "1 64530U 25135C   26063.31705897  .00023804  00000-0  98117-3 0  9997\n2 64530  97.4500 179.5653 0005182 186.2228 173.8945 15.24067343 38942",
      "epoch": "2026-03-04T07:36:33.895008",
      "fetched_at": "2026-03-05T06:00:02.617491",
      "source": "satnogs"
    },
    "98530": {
      "name": "LAMARR",
      "norad_id": "98530",
      "tle": "1 66673U 25276H   26026.90917087  .00034524  00000-0  16680-2 0  9998\n2 66673  97.4301 102.8338 0007597 141.5941 218.5835 15.18529012  8972",
      "epoch": "2026-01-26T21:49:12.363168",
      "fetched_at": "2026-01-28T06:00:02.884758",
      "source": "satnogs",
      "note": "Using previous TLE (fetch/manual failed today)"
    },
    "98529": {
      "name": "DIRAC",
      "norad_id": "98529",
      "tle": "1 66681U 25276R   26026.63281774  .00024563  00000-0  11745-2 0  9993\n2 66681  97.4280 102.5712 0006320 148.4115 211.7500 15.18972786  8932",
      "epoch": "2026-01-26T15:11:15.452736",
      "fetched_at": "2026-01-28T06:00:02.937152",
      "source": "satnogs",
      "note": "Using previous TLE (fetch/manual failed today)"
    },
    "98518": {
      "name": "MICE-1",
      "norad_id": "98518",
      "tle": "1 66684U 25276U   26063.42420039  .00008506  00000-0  41722-3 0  9991\n2 66684  97.4353 138.8242 0005496  15.5022 344.6379 15.18342933 14516",
      "epoch": "2026-03-04T10:10:50.913696",
      "fetched_at": "2026-03-05T06:00:02.749173",
      "source": "satnogs"
    }
  },
  "fetch_log": [
    {
      "norad_id": "98592",
      "name": "DUTHSat-2",
      "status": "success",
      "source": "satnogs",
      "timestamp": "2026-03-05T06:00:02.617497"
    },
    {
      "norad_id": "98530",
      "name": "LAMARR",
      "status": "fallback",
      "timestamp": "2026-03-05T06:00:02.660000"
    },
    {
      "norad_id": "98529",
      "name": "DIRAC",
      "status": "fallback",
      "timestamp": "2026-03-05T06:00:02.703394"
    },
    {
      "norad_id": "98518",
      "name": "MICE-1",
      "status": "success",
      "source": "satnogs",
      "timestamp": "2026-03-05T06:00:02.749179"
    }
  ]
}